NORAD_CAT_ID,OBJECT_NAME,OBJECT_TYPE,EPOCH,MEAN_MOTION,ECCENTRICITY,INCLINATION,RA_OF_ASC_NODE,ARG_OF_PERICENTER,MEAN_ANOMALY,BSTAR,MEAN_MOTION_DOT,MEAN_MOTION_DDOT,TLE_LINE0,TLE_LINE1,TLE_LINE2,SEMIMAJOR_AXIS,PERIOD,APOGEE,PERIGEE,DECAYED
55661.0,STARLINK-5475,PAYLOAD,2024-03-19 11:35:25,14.98336165,0.0002816,70.0017,180.3925,256.8415,103.243,6.4159e-05,6.73e-06,0.0,0 STARLINK-5475,1 55661U 23021AK  24079.48293969  .00000673  00000-0  64159-4 0  9998,2 55661  70.0017 180.3925 0002816 256.8415 103.2430 14.98336165 61406,6950.174,96.107,573.996,570.082,0.0
55661.0,STARLINK-5475,PAYLOAD,2024-03-19 13:11:34,14.98336076,0.0002816,70.0017,180.2242,256.7369,103.3476,6.2019e-05,6.47e-06,0.0,0 STARLINK-5475,1 55661U 23021AK  24079.54969955  .00000647  00000-0  62019-4 0  9994,2 55661  70.0017 180.2242 0002816 256.7369 103.3476 14.98336076 61114,6950.174,96.107,573.996,570.082,0.0
55661.0,STARLINK-5475,PAYLOAD,2024-03-20 10:01:20,14.98317237,0.0003004,70.0005,178.0343,269.0651,91.0164,-0.00014759,-1.853e-05,0.0,0 STARLINK-5475,1 55661U 23021AK  24080.41759901 -.00001853  00000-0 -14759-3 0  9999,2 55661  70.0005 178.0343 0003004 269.0651  91.0164 14.98317237 61248,6950.232,96.108,574.185,570.01,0.0
55661.0,STARLINK-5475,PAYLOAD,2024-03-20 13:13:36,14.98317281,0.0002936,70.0008,177.698,267.6346,92.4477,-0.00014118,-1.777e-05,0.0,0 STARLINK-5475,1 55661U 23021AK  24080.55111977 -.00001777  00000-0 -14118-3 0  9993,2 55661  70.0008 177.6980 0002936 267.6346  92.4477 14.98317281 61567,6950.232,96.108,574.138,570.057,0.0
55661.0,STARLINK-5475,PAYLOAD,2024-03-20 16:25:52,14.98319482,0.0002964,70.0006,177.3612,267.8918,92.1902,-0.00011217,-1.431e-05,0.0,0 STARLINK-5475,1 55661U 23021AK  24080.68463844 -.00001431  00000-0 -11217-3 0  9994,2 55661  70.0006 177.3612 0002964 267.8918  92.1902 14.98319482 61589,6950.225,96.108,574.15,570.03,0.0
55661.0,STARLINK-5475,PAYLOAD,2024-03-21 13:15:35,14.98353875,0.0002414,70.0014,175.1719,264.3916,95.6968,0.00021229,2.442e-05,0.0,0 STARLINK-5475,1 55661U 23021AK  24081.55248874  .00002442  00000-0  21229-3 0  9990,2 55661  70.0014 175.1719 0002414 264.3916  95.6968 14.98353875 61418,6950.119,96.105,573.662,570.306,0.0
55661.0,STARLINK-5475,PAYLOAD,2024-03-21 14:51:42,14.98359501,0.0003035,70.0009,175.0049,260.0466,100.0351,0.00025719,2.979e-05,0.0,0 STARLINK-5475,1 55661U 23021AK  24081.61924330  .00002979  00000-0  25719-3 0  9998,2 55661  70.0009 175.0049 0003035 260.0466 100.0351 14.98359501 61723,6950.102,96.105,574.076,569.857,0.0
55661.0,STARLINK-5475,PAYLOAD,2024-03-21 16:27:51,14.98350382,0.0002883,70.0008,174.8368,266.8563,93.2267,0.00016315,1.855e-05,0.0,0 STARLINK-5475,1 55661U 23021AK  24081.68601126  .00001855  00000-0  16315-3 0  9994,2 55661  70.0008 174.8368 0002883 266.8563  93.2267 14.98350382 61430,6950.13,96.106,573.999,569.991,0.0
55661.0,STARLINK-5475,PAYLOAD,2024-03-22 10:05:20,14.98331747,0.0002434,70.0021,172.9869,264.5668,95.5213,0.00024536,2.836e-05,0.0,0 STARLINK-5475,1 55661U 23021AK  24082.42037709  .00002836  00000-0  24536-3 0  9991,2 55661  70.0021 172.9869 0002434 264.5668  95.5213 14.98331747 61545,6950.187,96.107,573.744,570.361,0.0
55661.0,STARLINK-5475,PAYLOAD,2024-03-22 13:17:35,14.98339494,0.0002153,70.0027,172.6513,239.7843,120.3103,0.00031933,3.72e-05,0.0,0 STARLINK-5475,1 55661U 23021AK  24082.55388868  .00003720  00000-0  31933-3 0  9992,2 55661  70.0027 172.6513 0002153 239.7843 120.3103 14.98339494 61868,6950.164,96.106,573.525,570.532,0.0
55661.0,STARLINK-5475,PAYLOAD,2024-03-22 16:29:50,14.98352236,0.0002594,70.0011,172.3097,268.4423,91.6439,0.00045711,5.368e-05,0.0,0 STARLINK-5475,1 55661U 23021AK  24082.68739509  .00005368  00000-0  45711-3 0  9997,2 55661  70.0011 172.3097 0002594 268.4423  91.6439 14.98352236 61587,6950.124,96.106,573.792,570.186,0.0
55661.0,STARLINK-5475,PAYLOAD,2024-03-23 05:18:59,14.98317726,0.0002953,70.0013,170.9674,263.15,96.9323,-0.00032359,-3.951e-05,0.0,0 STARLINK-5475,1 55661U 23021AK  24083.22151797 -.00003951  00000-0 -32359-3 0  9997,2 55661  70.0013 170.9674 0002953 263.1500  96.9323 14.98317726 61665,6950.231,96.108,574.148,570.043,0.0
55661.0,STARLINK-5475,PAYLOAD,2024-03-23 14:55:47,14.9831568,0.0003076,70.0011,169.9561,265.0304,95.0504,-0.00029805,-3.646e-05,0.0,0 STARLINK-5475,1 55661U 23021AK  24083.62208098 -.00003646  00000-0 -29805-3 0  9991,2 55661  70.0011 169.9561 0003076 265.0304  95.0504 14.98315680 62025,6950.237,96.108,574.24,569.964,0.0
55661.0,STARLINK-5475,PAYLOAD,2024-03-24 05:20:59,14.98334959,0.0004054,69.9986,168.4377,278.2848,81.7851,-0.00016183,-2.024e-05,0.0,0 STARLINK-5475,1 55661U 23021AK  24084.22290519 -.00002024  00000-0 -16183-3 0  9991,2 55661  69.9986 168.4377 0004054 278.2848  81.7851 14.98334959 61811,6950.178,96.107,574.86,569.225,0.0
55661.0,STARLINK-5475,PAYLOAD,2024-03-24 13:21:37,14.98356541,0.0003128,70.0006,167.5995,269.5859,90.4942,-8.2658e-06,-1.92e-06,0.0,0 STARLINK-5475,1 55661U 23021AK  24084.55668565 -.00000192  00000-0 -82658-5 0  9993,2 55661  70.0006 167.5995 0003128 269.5859  90.4942 14.98356541 61863,6950.111,96.105,574.15,569.802,0.0
55661.0,STARLINK-5475,PAYLOAD,2024-03-24 14:57:45,14.98357262,0.0002866,70.0007,167.4301,265.717,94.3661,6.1768e-05,6.45e-06,0.0,0 STARLINK-5475,1 55661U 23021AK  24084.62344225  .00000645  00000-0  61768-4 0  9994,2 55661  70.0007 167.4301 0002866 265.7170  94.3661 14.98357262 62173,6950.109,96.105,573.965,569.982,0.0
55661.0,STARLINK-5475,PAYLOAD,2024-03-25 05:23:00,14.98310642,0.0003164,70.0003,165.9136,261.53,98.55,0.00014216,1.603e-05,0.0,0 STARLINK-5475,1 55661U 23021AK  24085.22430846  .00001603  00000-0  14216-3 0  9996,2 55661  70.0003 165.9136 0003164 261.5300  98.5500 14.98310642 61964,6950.253,96.108,574.317,569.919,0.0
55661.0,STARLINK-5475,PAYLOAD,2024-03-25 13:23:40,14.98320947,0.0003086,70.0016,165.0746,258.43,101.6512,0.0002557,2.959e-05,0.0,0 STARLINK-5475,1 55661U 23021AK  24085.55810296  .00002959  00000-0  25570-3 0  9993,2 55661  70.0016 165.0746 0003086 258.4300 101.6512 14.98320947 62019,6950.221,96.108,574.231,569.941,0.0
55661.0,STARLINK-5475,PAYLOAD,2024-03-25 14:59:47,14.98330609,0.0003146,70.0016,164.9068,258.2942,101.7864,0.00036992,4.324e-05,0.0,0 STARLINK-5475,1 55661U 23021AK  24085.62485378  .00004324  00000-0  36992-3 0  9998,2 55661  70.0016 164.9068 0003146 258.2942 101.7864 14.98330609 62029,6950.191,96.107,574.243,569.869,0.0
55661.0,STARLINK-5475,PAYLOAD,2024-03-26 05:25:01,14.98331459,0.0003303,70.0008,163.3903,269.8187,90.2594,-0.00022976,-2.834e-05,0.0,0 STARLINK-5475,1 55661U 23021AK  24086.22571208 -.00002834  00000-0 -22976-3 0  9996,2 55661  70.0008 163.3903 0003303 269.8187  90.2594 14.98331459 62111,6950.188,96.107,574.349,569.758,0.0
55661.0,STARLINK-5475,PAYLOAD,2024-03-26 13:25:42,14.98318259,0.0003263,70.0002,162.5496,267.2702,92.8083,-0.00033887,-4.133e-05,0.0,0 STARLINK-5475,1 55661U 23021AK  24086.55952427 -.00004133  00000-0 -33887-3 0  9995,2 55661  70.0002 162.5496 0003263 267.2702  92.8083 14.98318259 62162,6950.229,96.108,574.362,569.826,0.0
55661.0,STARLINK-5475,PAYLOAD,2024-03-26 15:01:50,14.98318805,0.0003242,70.0004,162.3815,266.5914,93.4874,-0.0003221,-3.933e-05,0.0,0 STARLINK-5475,1 55661U 23021AK  24086.62628395 -.00003933  00000-0 -32210-3 0  9993,2 55661  70.0004 162.3815 0003242 266.5914  93.4874 14.98318805 62477,6950.228,96.108,574.346,569.839,0.0
55661.0,STARLINK-5475,PAYLOAD,2024-03-27 05:27:03,14.98313072,0.0003619,69.999,160.8634,267.6868,92.3877,2.7709e-05,2.37e-06,0.0,0 STARLINK-5475,1 55661U 23021AK  24087.22712145  .00000237  00000-0  27709-4 0  9997,2 55661  69.9990 160.8634 0003619 267.6868  92.3877 14.98313072 62267,6950.245,96.108,574.626,569.595,0.0
55661.0,STARLINK-5475,PAYLOAD,2024-03-27 13:27:43,14.9832292,0.0003007,70.0013,160.0264,257.0896,102.9927,9.8929e-05,1.087e-05,0.0,0 STARLINK-5475,1 55661U 23021AK  24087.56091596  .00001087  00000-0  98929-4 0  9990,2 55661  70.0013 160.0264 0003007 257.0896 102.9927 14.98322920 62314,6950.215,96.107,574.17,569.99,0.0
55661.0,STARLINK-5475,PAYLOAD,2024-03-27 21:28:22,14.98335601,0.000373,69.9995,159.1816,269.6218,90.4514,0.00016803,1.913e-05,0.0,0 STARLINK-5475,1 55661U 23021AK  24087.89470550  .00001913  00000-0  16803-3 0  9995,2 55661  69.9995 159.1816 0003730 269.6218  90.4514 14.98335601 62663,6950.176,96.107,574.633,569.448,0.0
55661.0,STARLINK-5475,PAYLOAD,2024-03-28 05:29:01,14.98341833,0.0002866,70.0006,158.3427,265.7,94.3832,0.00049987,5.878e-05,0.0,0 STARLINK-5475,1 55661U 23021AK  24088.22849195  .00005878  00000-0  49987-3 0  9991,2 55661  70.0006 158.3427 0002866 265.7000  94.3832 14.98341833 62416,6950.156,96.106,574.013,570.029,0.0
55661.0,STARLINK-5475,PAYLOAD,2024-03-28 11:53:32,14.98351753,0.0003172,70.0002,157.6666,268.7103,91.3693,0.00060661,7.156e-05,0.0,0 STARLINK-5475,1 55661U 23021AK  24088.49551992  .00007156  00000-0  60661-3 0  9998,2 55661  70.0002 157.6666 0003172 268.7103  91.3693 14.98351753 62455,6950.126,96.106,574.195,569.786,0.0
55661.0,STARLINK-5475,PAYLOAD,2024-03-28 15:05:47,14.98366216,0.0003304,70.0,157.3297,267.7387,92.3394,0.00073624,8.711e-05,0.0,0 STARLINK-5475,1 55661U 23021AK  24088.62902472  .00008711  00000-0  73624-3 0  9997,2 55661  70.0000 157.3297 0003304 267.7387  92.3394 14.98366216 62471,6950.081,96.105,574.242,569.65,0.0
55661.0,STARLINK-5475,PAYLOAD,2024-03-28 21:30:21,14.98348221,0.0003273,69.9991,156.6558,276.1553,83.9233,0.0003188,3.715e-05,0.0,0 STARLINK-5475,1 55661U 23021AK  24088.89608376  .00003715  00000-0  31880-3 0  9999,2 55661  69.9991 156.6558 0003273 276.1553  83.9233 14.98348221 62815,6950.137,96.106,574.276,569.727,0.0
55661.0,STARLINK-5475,PAYLOAD,2024-03-29 05:31:05,14.98294561,0.0003223,69.9996,155.8138,270.9894,89.0896,0.00013155,1.476e-05,0.0,0 STARLINK-5475,1 55661U 23021AK  24089.22991902  .00001476  00000-0  13155-3 0  9994,2 55661  69.9996 155.8138 0003223 270.9894  89.0896 14.98294561 62561,6950.302,96.109,574.408,569.927,0.0
